{"spkid": "54209301", "covariance": {"epoch": "2458858.5", "elements": [{"label": "e", "units": null, "title": "eccentricity", "value": ".2786955480301124", "sigma": 4.44501273250806e-08, "name": "e"}, {"label": "q", "name": "q", "sigma": 4.79588069516845e-08, "units": "au", "value": ".7794263689325857", "title": "perihelion distance"}, {"label": "tp", "name": "tp", "sigma": 1.42884906763544e-05, "title": "time of perihelion passage", "value": "2458769.542831514651", "units": "TDB"}, {"label": "node", "name": "om", "sigma": 1.08520391587733e-05, "units": "deg", "title": "longitude of the ascending node", "value": "206.4789439595353"}, {"label": "peri", "title": "argument of perihelion", "value": "287.2474326245263", "units": "deg", "name": "w", "sigma": 1.8566401767242e-05}, {"name": "i", "sigma": 1.28448246423909e-05, "units": "deg", "title": "inclination", "value": "9.310076000900064", "label": "i"}], "data": [["1.975813819215878E-15", "-2.130986042151941E-15", "-1.408409380332781E-13", "6.335026530051327E-14", "3.444699787173971E-14", "4.52277102720981E-14"], ["-2.130986042151941E-15", "2.30004716422894E-15", "1.381392204960272E-13", "-6.658280094638779E-14", "-5.14684783943653E-14", "-5.698465823464596E-14"], ["-1.408409380332781E-13", "1.381392204960272E-13", "2.041609658082679E-10", "-2.677880019697561E-11", "2.076427446403625E-10", "1.025051803452428E-10"], ["6.335026530051327E-14", "-6.658280094638779E-14", "-2.677880019697561E-11", "1.177667539035496E-10", "-1.366284587281761E-10", "4.226684114558217E-11"], ["3.444699787173971E-14", "-5.14684783943653E-14", "2.076427446403625E-10", "-1.366284587281761E-10", "3.447112745826467E-10", "6.645124682659526E-11"], ["4.52277102720981E-14", "-5.698465823464596E-14", "1.025051803452428E-10", "4.226684114558217E-11", "6.645124682659526E-11", "1.649895200937719E-10"]], "labels": ["e", "q", "tp", "node", "peri", "i"]}, "elements": [{"label": "e", "sigma": "4.4039E-8", "name": "e", "value": ".2788554309976908", "title": "eccentricity", "units": null}, {"label": "a", "name": "a", "sigma": "1.6856E-9", "units": "au", "value": "1.079672938846424", "title": "semi-major axis"}, {"label": "q", "name": "q", "sigma": "4.7688E-8", "units": "au", "title": "perihelion distance", "value": ".7786002761478611"}, {"label": "i", "name": "i", "sigma": "1.289E-5", "title": "inclination; angle with respect to x-y ecliptic plane", "value": "9.287403459001315", "units": "deg"}, {"name": "om", "sigma": "1.0919E-5", "units": "deg", "title": "longitude of the ascending node", "value": "206.3664112609159", "label": "node"}, {"label": "peri", "name": "w", "sigma": "1.8479E-5", "units": "deg", "title": "argument of perihelion", "value": "287.3721158739061"}, {"sigma": "1.213E-5", "name": "ma", "units": "deg", "title": "mean anomaly", "value": "334.5792369421264", "label": "M"}, {"name": "tp", "sigma": "1.384E-5", "units": "TDB", "title": "time of perihelion passage", "value": "2461229.434956458554", "label": "tp"}, {"sigma": "9.5963E-7", "name": "per", "units": "d", "value": "409.7667840011296", "title": "sidereal orbital period", "label": "period"}, {"label": "n", "name": "n", "sigma": "2.0575E-9", "value": ".8785485160237089", "title": "mean motion", "units": "deg/d"}, {"name": "ad", "sigma": "2.1557E-9", "units": "au", "value": "1.380745601544987", "title": "aphelion distance", "label": "Q"}], "epoch": "2461200.5"}